{
    "links": {
        "self": "http://www.neowsapp.com/rest/v1/neo/3795100?api_key=iIulBulltgU6a56xZRHN4H3l9WmuAYTsLGpBGhQ2"
    },
    "id": "3795100",
    "neo_reference_id": "3795100",
    "name": "(2017 YC6)",
    "designation": "2017 YC6",
    "nasa_jpl_url": "http://ssd.jpl.nasa.gov/sbdb.cgi?sstr=3795100",
    "absolute_magnitude_h": 25.9,
    "estimated_diameter": {
        "kilometers": {
            "estimated_diameter_min": 0.0175612318,
            "estimated_diameter_max": 0.0392681082
        },
        "meters": {
            "estimated_diameter_min": 17.561231848,
            "estimated_diameter_max": 39.2681081809
        },
        "miles": {
            "estimated_diameter_min": 0.0109120402,
            "estimated_diameter_max": 0.0244000636
        },
        "feet": {
            "estimated_diameter_min": 57.6155918963,
            "estimated_diameter_max": 128.8323800441
        }
    },
    "is_potentially_hazardous_asteroid": false,
    "close_approach_data": [
        {
            "close_approach_date": "2017-12-20",
            "close_approach_date_full": "2017-Dec-20 16:16",
            "epoch_date_close_approach": 1513786560000,
            "relative_velocity": {
                "kilometers_per_second": "14.6144448181",
                "kilometers_per_hour": "52612.0013450682",
                "miles_per_hour": "32691.0516135508"
            },
            "miss_distance": {
                "astronomical": "0.0246885567",
                "lunar": "9.6038485563",
                "kilometers": "3693355.495694229",
                "miles": "2294944.6870252002"
            },
            "orbiting_body": "Earth"
        }
    ],
    "orbital_data": {
        "orbit_id": "1",
        "orbit_determination_date": "2017-12-28 15:12:08",
        "first_observation_date": "2017-12-26",
        "last_observation_date": "2017-12-28",
        "data_arc_in_days": 2,
        "observations_used": 24,
        "orbit_uncertainty": "8",
        "minimum_orbit_intersection": "4.12992E-5",
        "jupiter_tisserand_invariant": "2.914",
        "epoch_osculation": "2458114.5",
        "eccentricity": ".703966114419158",
        "semi_major_axis": "2.772579198033199",
        "inclination": ".3592537839162916",
        "ascending_node_longitude": "341.2995791191784",
        "orbital_period": "1686.259337837662",
        "perihelion_distance": ".8207773930743827",
        "perihelion_argument": "56.98058228628046",
        "aphelion_distance": "4.724381002992016",
        "perihelion_time": "2458074.514810832096",
        "mean_anomaly": "8.536449748532826",
        "mean_motion": ".2134902929353905",
        "equinox": "J2000",
        "orbit_class": {
            "orbit_class_type": "APO",
            "orbit_class_description": "Near-Earth asteroid orbits which cross the Earth’s orbit similar to that of 1862 Apollo",
            "orbit_class_range": "a (semi-major axis) > 1.0 AU; q (perihelion) < 1.017 AU"
        }
    },
    "is_sentry_object": false
}